ONEWEB-0055             
1 45443U 20020V   21099.66005246  .00000522  00000-0  14383-2 0  9994
2 45443  87.8946  37.6600 0001848  76.7438 283.3896 13.11414931 54301
ONEWEB-0093             
1 45444U 20020W   21099.77370116 -.00000553  00000-0 -15966-2 0  9992
2 45444  87.8936  37.6933 0002147  80.3304 279.8066 13.11417420 54389
ONEWEB-0029             
1 45445U 20020X   21099.88738248  .00000543  00000-0  14962-2 0  9991
2 45445  87.8940  37.6534 0001881  80.5154 279.6186 13.11417309 54377
ONEWEB-0068             
1 45446U 20020Y   21099.84377556 -.00000412  00000-0 -11971-2 0  9993
2 45446  87.8937  37.6792 0002133  61.8483 298.2861 13.11415642 54317
ONEWEB-0046             
1 45447U 20020Z   21099.84066289 -.00000373  00000-0 -10896-2 0  9993
2 45447  87.8936  37.6837 0002123  77.4425 282.6941 13.11411134 54324
ONEWEB-0063             
1 45448U 20020AA  21099.80797225  .00000478  00000-0  13118-2 0  9995
2 45448  87.8930  37.7060 0002589  74.7141 285.4272 13.11418195 54400
ONEWEB-0019             
1 45449U 20020AB  21099.84532660 -.00000468  00000-0 -13568-2 0  9990
2 45449  87.8938  37.6543 0001869  79.9535 280.1804 13.11417591 54253
ONEWEB-0094             
1 45450U 20020AC  21099.39209810 -.00457312  00000-0 -85663+0 0  9996
2 45450  87.9357  22.5581 0026500  22.1579 338.0705 13.41133724 56748
ONEWEB-0087             
1 45451U 20020AD  21099.81420294  .00000458  00000-0  12568-2 0  9995
2 45451  87.8943  37.6892 0001860  80.1424 279.9914 13.11417125 54296
ONEWEB-0082             
1 45452U 20020AE  21099.89205421  .00000314  00000-0  85125-3 0  9998
2 45452  87.8933  37.6410 0002029  70.6588 289.4759 13.11416067 54393
ONEWEB-0050             
1 45453U 20020AF  21099.80918570  .00000389  00000-0  32805-4 0  9996
2 45453  87.5483  17.1218 0025804 353.2284   6.8594 14.94919012 57491
ONEWEB-0034             
1 45454U 20020AG  21099.67561643  .00000159  00000-0  41277-3 0  9994
2 45454  87.8934  37.7070 0002203  77.4605 282.6769 13.11412676 54284
ONEWEB-0060             
1 45455U 20020AH  21099.91072603 -.00000105  00000-0 -33195-3 0  9998
2 45455  87.8939  37.6532 0002084  77.6333 282.5028 13.11413702 54276
ONEWEB-0086             
1 45456U 20020AJ  21099.77214855 -.00000536  00000-0 -15493-2 0  9998
2 45456  87.8936  37.6786 0002127  75.8399 284.2965 13.11418097 54311
ONEWEB-0088             
1 45457U 20020AK  21099.82976072  .00000094  00000-0  22927-3 0  9999
2 45457  87.8932  37.7011 0002203  76.8914 283.2460 13.11415517 54255
ONEWEB-0102             
1 47258U 20100A   21099.91667824 -.00038111  00000-0 -82954-1 0  9998
2 47258  87.9606   7.3725 0001413  94.5006 329.6622 13.29254575  1735
ONEWEB-0109             
1 47259U 20100B   21099.91667824  .00000013  00000-0  00000-0 0  9998
2 47259  87.9287   7.2363 0002044 107.9434  71.9462 13.27964041  1770
ONEWEB-0110             
1 47260U 20100C   21099.91667824 -.00038650  00000-0 -84686-1 0  9993
2 47260  87.9623   7.2441 0001517  75.2426  48.9954 13.28819541  1714
ONEWEB-0111             
1 47261U 20100D   21099.91667824 -.00039044  00000-0 -85797-1 0  9996
2 47261  87.9625   7.2407 0001371  73.1572 221.3610 13.28630158  1773
ONEWEB-0114             
1 47262U 20100E   21099.91667824 -.00037459  00000-0 -89382-1 0  9999
2 47262  87.9358   7.2295 0001312  84.6517 283.4889 13.23112749  1710
ONEWEB-0117             
1 47263U 20100F   21099.91667824 -.00120172  00000-0 -28690+0 0  9998
2 47263  87.9418   7.2997 0001306  78.8448 154.1503 13.23674481  1755
ONEWEB-0118             
1 47264U 20100G   21099.91667824 -.00038484  00000-0 -84025-1 0  9999
2 47264  87.9606   7.2788 0001782  96.0531 229.1996 13.29052764  1788
ONEWEB-0119             
1 47265U 20100H   21099.91667824 -.00037896  00000-0 -83532-1 0  9998
2 47265  87.9621   7.3392 0001617 112.6651 290.5289 13.28415924  1746
ONEWEB-0120             
1 47266U 20100J   21099.91667824 -.00020558  00000-0 -45277-1 0  9990
2 47266  87.9589   7.1563 0000860 272.1588 166.1826 13.28361920  1817
ONEWEB-0121             
1 47267U 20100K   21099.91667824 -.00038086  00000-0 -83743-1 0  9996
2 47267  87.9607   6.9488 0010884 281.5311  44.3260 13.28560808  1711
ONEWEB-0122             
1 47268U 20100L   21099.91667824 -.00038152  00000-0 -83536-1 0  9991
2 47268  87.9607   7.2677 0001274  79.5123 265.4003 13.28863439  1756
ONEWEB-0123             
1 47269U 20100M   21099.91667824  .00000013  00000-0  00000+0 0  9998
2 47269  87.9596   7.2922 0001297 107.0106 134.5566 13.30795180 16206
ONEWEB-0124             
1 47270U 20100N   21099.91667824  .00000013  00000-0  00000-0 0  9991
2 47270  87.9556   7.2916 0001603  88.9800  86.0563 13.28123819  1748
ONEWEB-0125             
1 47271U 20100P   21099.91667824 -.00038771  00000-0 -82766-1 0  9996
2 47271  87.9451   7.2533 0001535 109.0474 205.8335 13.30548270  1770
ONEWEB-0126             
1 47272U 20100Q   21099.91667824 -.00039728  00000-0 -87337-1 0  9999
2 47272  87.9622   7.3467 0001589  90.1533 128.4697 13.28605919  1720
ONEWEB-0127             
1 47273U 20100R   21099.91667824 -.00038267  00000-0 -83583-1 0  9996
2 47273  87.9595   7.2852 0001413  88.6734 249.7635 13.29025334  1815
ONEWEB-0128             
1 47274U 20100S   21099.91667824  .00000013  00000-0  00000-0 0  9995
2 47274  87.9631   7.2524 0001310  90.4229  76.5569 13.28808575  1726
ONEWEB-0129             
1 47275U 20100T   21099.91667824 -.00040687  00000-0 -89518-1 0  9991
2 47275  87.9621   7.0584 0001636 293.1126 296.2761 13.28558150  1747
ONEWEB-0130             
1 47276U 20100U   21099.91667824  .00000013  00000-0  00000-0 0  9997
2 47276  87.9415   7.2421 0001571  92.6217 247.3689 13.24749597  1729
ONEWEB-0131             
1 47277U 20100V   21099.91667824 -.00039257  00000-0 -86116-1 0  9995
2 47277  87.9602   7.1866 0001097  79.9299 100.9256 13.28747084  1784
ONEWEB-0132             
1 47278U 20100W   21099.91667824 -.00038812  00000-0 -85509-1 0  9997
2 47278  87.9640   7.3410 0001685  92.2298 217.9387 13.28455321  1711
ONEWEB-0133             
1 47279U 20100X   21099.91667824 -.00047575  00000-0 -10495+0 0  9994
2 47279  87.9624   7.1893 0004806 263.6297  18.5744 13.28427454  1749
ONEWEB-0134             
1 47280U 20100Y   21099.91667824 -.00039210  00000-0 -85845-1 0  9996
2 47280  87.9611   7.2796 0001442  92.6262 195.2293 13.28875347  1745
ONEWEB-0135             
1 47281U 20100Z   21099.91667824 -.00039642  00000-0 -87333-1 0  9990
2 47281  87.9621   7.2611 0001617  89.0983 156.5203 13.28464216  1758
ONEWEB-0136             
1 47282U 20100AA  21099.91667824 -.00037882  00000-0 -83483-1 0  9997
2 47282  87.9617   7.1795 0001275  79.2334 280.5238 13.28431200  1761
ONEWEB-0137             
1 47283U 20100AB  21099.91667824 -.00038240  00000-0 -84048-1 0  9995
2 47283  87.9625   7.3482 0002029  97.6248 343.5957 13.28610585  1710
ONEWEB-0138             
1 47284U 20100AC  21099.91667824 -.00043291  00000-0 -95407-1 0  9999
2 47284  87.9735   7.3016 0009231 274.4601  30.5715 13.28449373  1749
ONEWEB-0139             
1 47285U 20100AD  21099.91667824 -.00038300  00000-0 -83879-1 0  9995
2 47285  87.9622   7.2806 0000900  80.5845   9.9751 13.28848504  1751
ONEWEB-0140             
1 47286U 20100AE  21099.91667824 -.00038097  00000-0 -83698-1 0  9998
2 47286  87.9625   7.2836 0001363  84.2960 346.4148 13.28638397  1713
ONEWEB-0141             
1 47287U 20100AF  21099.91667824  .00000013  00000-0  00000-0 0  9999
2 47287  87.9610   7.3263 0001222 103.3421 199.1005 13.29074290  1769
ONEWEB-0142             
1 47288U 20100AG  21099.91667824 -.00037939  00000-0 -83009-1 0  9990
2 47288  87.9613   7.3599 0001401  89.4047 308.6286 13.28909772  1738
ONEWEB-0143             
1 47289U 20100AH  21099.91667824 -.00037629  00000-0 -82625-1 0  9990
2 47289  87.9628   7.0987 0001963  93.1125 293.0459 13.28669664  1737
ONEWEB-0144             
1 47290U 20100AJ  21099.91667824 -.00039062  00000-0 -85833-1 0  9999
2 47290  87.9237   7.2307 0001583 100.0924  61.1094 13.28632687  1763
ONEWEB-0145             
1 47291U 20100AK  21099.91667824 -.00037888  00000-0 -83301-1 0  9992
2 47291  87.9609   7.2648 0001771  82.6598 286.5138 13.28585861 16271
ONEWEB-0146             
1 47292U 20100AL  21099.91667824 -.00039156  00000-0 -86212-1 0  9997
2 47292  87.9618   7.3146 0001480 102.2195  60.9614 13.28500551  1725
ONEWEB-0147             
1 47293U 20100AM  21099.91667824 -.00038101  00000-0 -83851-1 0  9993
2 47293  87.9628   7.2815 0005942 269.0851  76.6035 13.28516475  1719
ONEWEB-0115             
1 48042U 21025A   21099.91667824 -.00016046  00000-0 -39218-3 0  9997
2 48042  87.3977 344.5426 0005164 203.3231 305.1332 15.40986308  1764
ONEWEB-0152             
1 48043U 21025B   21099.91667824 -.00014019  00000-0 -35584-3 0  9998
2 48043  87.3958 344.5506 0008069 189.2959 257.9155 15.39818774  1800
ONEWEB-0153             
1 48044U 21025C   21099.91667824 -.00010859  00000-0 -28352-3 0  9992
2 48044  87.3958 344.5602 0007552 218.0848 174.3879 15.38976521  1801
ONEWEB-0154             
1 48045U 21025D   21099.91667824 -.00010693  00000-0 -28679-3 0  9991
2 48045  87.3944 344.5616 0005149 197.4641 152.8098 15.38165663  1804
ONEWEB-0116             
1 48046U 21025E   21099.91667824 -.00015961  00000-0 -39150-3 0  9991
2 48046  87.3947 344.5407 0004842 199.3281 303.1007 15.40879166  1787
ONEWEB-0150             
1 48047U 21025F   21099.91667824 -.00015033  00000-0 -37599-3 0  9997
2 48047  87.3960 344.5462 0006894 180.6588 287.9860 15.40276627  1831
ONEWEB-0107             
1 48048U 21025G   21099.91667824 -.00011164  00000-0 -29083-3 0  9998
2 48048  87.3939 344.5512 0007740 214.7130 184.5807 15.39039386  1781
ONEWEB-0101             
1 48049U 21025H   21099.91667824 -.00011747  00000-0 -31871-3 0  9994
2 48049  87.3952 344.5678 0006315 186.9336 142.6063 15.37793948  1750
